{"difficulty": "Cruel","date": "2018-01-10","weapon": "TwoHandedMace","phase1": "Lieutenants","phase2": "Fonts","trap1": "BladeSentries","trap2": "Spikes","section1layout": "cruel_double_down","section2layout": "triangle","section3layout": "plane","rooms": [{"name": "estate walkways","areacode": "2_labyrinth_oh_branch","id": "1","x": "106","y": "128","dangerous": "false","contents": ["Trap gauntlet"],"content_directions": [],"exits": {"NE": "2","NW": "3"}},{"name": "sepulchre passage","areacode": "2_labyrinth_c_straight_bottleneck","id": "2","x": "175","y": "172","dangerous": "false","contents": ["Trap gauntlet","darkshrine"],"content_directions": [],"exits": {"NE": "3"}},{"name": "aspirant's trial","areacode": "2_labyrinth_boss_2","id": "3","x": "244","y": "128","dangerous": "false","contents": [],"content_directions": [],"exits": {"NW": "4"}},{"name": "domain walkways","areacode": "2_labyrinth_dg_branch_bottleneck_1_#","id": "4","x": "311","y": "128","dangerous": "false","contents": ["darkshrine"],"content_directions": [],"exits": {"NW": "5","NE": "6"}},{"name": "basilica halls","areacode": "2_labyrinth_rt_branch_bottleneck_1","id": "5","x": "450","y": "128","dangerous": "false","contents": ["Switch puzzle"],"content_directions": [],"exits": {"N": "4","NE": "7"}},{"name": "sanitorium passage","areacode": "2_labyrinth_p_straight","id": "6","x": "379","y": "40","dangerous": "false","contents": ["Escort gauntlet","darkshrine"],"content_directions": [],"exits": {"NE": "5"}},{"name": "aspirant's trial","areacode": "2_labyrinth_boss_1","id": "7","x": "518","y": "128","dangerous": "false","contents": [],"content_directions": [],"exits": {"NW": "8"}},{"name": "basilica halls","areacode": "2_labyrinth_rt_branch","id": "8","x": "587","y": "128","dangerous": "false","contents": [],"content_directions": [],"exits": {"NW": "9","NE": "10"}},{"name": "sanitorium passage","areacode": "2_labyrinth_p_straight","id": "9","x": "655","y": "40","dangerous": "false","contents": ["silver-key","silver-door"],"content_directions": [],"exits": {"NE": "10"}},{"name": "estate crossing","areacode": "2_labyrinth_oh_quad_#","id": "10","x": "691","y": "128","dangerous": "false","contents": ["darkshrine"],"content_directions": [],"exits": {"NW": "9","N": "11","NE": "12"}},{"name": "aspirant's trial","areacode": "2_labyrinth_boss_2_end","id": "11","x": "793","y": "128","dangerous": "false","contents": [],"content_directions": [],"exits": {}},{"name": "domain path","areacode": "2_labyrinth_dg_straight","id": "12","x": "726","y": "216","dangerous": "false","contents": ["silver-key","silver-door"],"content_directions": [],"exits": {"NE": "11"}}]}