{"difficulty": "Uber","date": "2018-01-10","weapon": "SwordAndShield","phase1": "Lieutenants","phase2": "Gargoyles","trap1": "Saws","trap2": "NoTrap","section1layout": "catapult","section2layout": "ship_long","section3layout": "confusing","rooms": [{"name": "estate walkways","areacode": "endgame_labyrinth_oh_branch","id": "1","x": "38","y": "128","dangerous": "false","contents": ["Escort gauntlet"],"content_directions": [],"exits": {"C": "2","N": "2","NE": "3"},"secret_passage": "Well"},{"name": "sanitorium passage","areacode": "endgame_labyrinth_p_straight","id": "2","x": "106","y": "40","dangerous": "false","contents": ["silver-key"],"content_directions": [],"exits": {"C": "1","NE": "3"},"secret_passage": "Well"},{"name": "mansion atrium","areacode": "endgame_labyrinth_eh_quad_door_#","id": "3","x": "175","y": "128","dangerous": "false","contents": ["silver-key","golden-door"],"content_directions": [],"exits": {"NE": "5","N": "4"}},{"name": "sepulchre annex","areacode": "endgame_labyrinth_c_end_bottleneck","id": "4","x": "209","y": "84","dangerous": "false","contents": ["golden-key","Trap gauntlet"],"content_directions": [],"exits": {}},{"name": "aspirant's trial","areacode": "endgame_labyrinth_boss_1","id": "5","x": "244","y": "128","dangerous": "false","contents": [],"content_directions": [],"exits": {"NW": "6"}},{"name": "sepulchre passage","areacode": "endgame_labyrinth_c_straight","id": "6","x": "311","y": "128","dangerous": "false","contents": ["darkshrine"],"content_directions": [],"exits": {"NE": "7"}},{"name": "sanitorium passage","areacode": "endgame_labyrinth_p_straight_bottleneck","id": "7","x": "379","y": "172","dangerous": "false","contents": ["silver-key","Trap gauntlet"],"content_directions": [],"exits": {"NE": "8"}},{"name": "basilica halls","areacode": "endgame_labyrinth_rt_branch_bottleneck_1","id": "8","x": "450","y": "172","dangerous": "false","contents": ["darkshrine"],"content_directions": [],"exits": {"NW": "9","NE": "10"}},{"name": "estate enclosure","areacode": "endgame_labyrinth_oh_end_bottleneck","id": "9","x": "450","y": "84","dangerous": "false","contents": ["silver-door","argus"],"content_directions": [],"exits": {}},{"name": "aspirant's trial","areacode": "endgame_labyrinth_boss_1","id": "10","x": "518","y": "128","dangerous": "false","contents": [],"content_directions": [],"exits": {"NW": "11"}},{"name": "sanitorium atrium","areacode": "endgame_labyrinth_p_quad","id": "11","x": "587","y": "128","dangerous": "false","contents": ["silver-door","Switch puzzle"],"content_directions": [],"exits": {"NE": "12","NW": "13","N": "14"}},{"name": "sepulchre passage","areacode": "endgame_labyrinth_c_straight_bottleneck","id": "12","x": "655","y": "216","dangerous": "false","contents": ["darkshrine"],"content_directions": [],"exits": {"NE": "16"}},{"name": "mansion passage","areacode": "endgame_labyrinth_eh_straight_bottleneck","id": "13","x": "691","y": "40","dangerous": "false","contents": [],"content_directions": [],"exits": {"NE": "16"}},{"name": "sepulchre passage","areacode": "endgame_labyrinth_c_straight","id": "14","x": "655","y": "128","dangerous": "false","contents": ["silver-door","darkshrine"],"content_directions": [],"exits": {"NE": "15"}},{"name": "aspirant's trial","areacode": "endgame_labyrinth_boss_2_end","id": "15","x": "793","y": "128","dangerous": "false","contents": [],"content_directions": [],"exits": {}},{"name": "mansion halls","areacode": "endgame_labyrinth_eh_branch","id": "16","x": "726","y": "172","dangerous": "false","contents": [],"content_directions": [],"exits": {"NE": "15"}}]}