{"difficulty": "Normal","date": "2018-01-10","weapon": "TwoSwords","phase1": "Gargoyles","phase2": "Conduits","trap1": "NoTrap","trap2": "NoTrap","section1layout": "single","section2layout": "double_up","section3layout": "compass_west","rooms": [{"name": "estate path","areacode": "1_labyrinth_oh_straight","id": "1","x": "106","y": "128","dangerous": "false","contents": ["Trap gauntlet"],"content_directions": [],"exits": {"NE": "2"}},{"name": "aspirant's trial","areacode": "1_labyrinth_boss_1","id": "2","x": "244","y": "128","dangerous": "false","contents": [],"content_directions": [],"exits": {"NW": "3"}},{"name": "sanitorium halls","areacode": "1_labyrinth_p_branch_bottleneck_2","id": "3","x": "379","y": "128","dangerous": "false","contents": ["Switch puzzle"],"content_directions": [],"exits": {"NW": "5","NE": "4"}},{"name": "aspirant's trial","areacode": "1_labyrinth_boss_2","id": "4","x": "518","y": "128","dangerous": "false","contents": [],"content_directions": [],"exits": {"NW": "6"}},{"name": "mansion passage","areacode": "1_labyrinth_eh_straight_#","id": "5","x": "450","y": "40","dangerous": "false","contents": ["Escort gauntlet","darkshrine"],"content_directions": [],"exits": {"NE": "4"}},{"name": "mansion halls","areacode": "1_labyrinth_eh_block_branch","id": "6","x": "621","y": "128","dangerous": "false","contents": ["Trap gauntlet"],"content_directions": [],"exits": {"NW": "7","NE": "8"}},{"name": "basilica halls","areacode": "1_labyrinth_rt_branch_bottleneck_2","id": "7","x": "726","y": "216","dangerous": "false","contents": ["silver-key","silver-door"],"content_directions": [],"exits": {"NW": "9","NE": "10"}},{"name": "domain walkways","areacode": "1_labyrinth_dg_branch","id": "8","x": "726","y": "40","dangerous": "false","contents": ["darkshrine"],"content_directions": [],"exits": {"NE": "9","NW": "10"}},{"name": "sepulchre passage","areacode": "1_labyrinth_c_straight","id": "9","x": "691","y": "128","dangerous": "false","contents": ["silver-key","silver-door"],"content_directions": [],"exits": {"NE": "8","SE": "7"}},{"name": "aspirant's trial","areacode": "1_labyrinth_boss_2_end","id": "10","x": "793","y": "128","dangerous": "false","contents": [],"content_directions": [],"exits": {}}]}