{"difficulty": "Merciless","date": "2018-01-10","weapon": "TwoSwords","phase1": "Conduits","phase2": "Gargoyles","trap1": "Saws","trap2": "Spikes","section1layout": "diamond","section2layout": "car_appendum","section3layout": "compass_east","rooms": [{"name": "estate walkways","areacode": "3_labyrinth_oh_branch_door","id": "1","x": "106","y": "128","dangerous": "false","contents": ["golden-key","golden-door"],"content_directions": [],"exits": {"N": "2","NE": "3"}},{"name": "estate path","areacode": "3_labyrinth_oh_straight","id": "2","x": "175","y": "40","dangerous": "false","contents": [],"content_directions": [],"exits": {"NE": "4"}},{"name": "sanitorium passage","areacode": "3_labyrinth_p_straight_bottleneck","id": "3","x": "175","y": "216","dangerous": "false","contents": ["argus"],"content_directions": [],"exits": {"NE": "4"}},{"name": "aspirant's trial","areacode": "3_labyrinth_boss_2","id": "4","x": "244","y": "128","dangerous": "false","contents": [],"content_directions": [],"exits": {"NW": "5"}},{"name": "basilica passage","areacode": "3_labyrinth_rt_straight_bottleneck","id": "5","x": "311","y": "128","dangerous": "false","contents": ["Switch puzzle","darkshrine"],"content_directions": [],"exits": {"NE": "6"}},{"name": "sepulchre halls","areacode": "3_labyrinth_c_branch_bottleneck_2","id": "6","x": "414","y": "172","dangerous": "false","contents": ["darkshrine"],"content_directions": [],"exits": {"NE": "7","NW": "8"}},{"name": "aspirant's trial","areacode": "3_labyrinth_boss_2","id": "7","x": "518","y": "128","dangerous": "false","contents": [],"content_directions": [],"exits": {"NW": "9"}},{"name": "basilica passage","areacode": "3_labyrinth_rt_straight","id": "8","x": "450","y": "84","dangerous": "false","contents": ["silver-key","Escort gauntlet"],"content_directions": [],"exits": {"NE": "7"}},{"name": "mansion halls","areacode": "3_labyrinth_eh_branch_bottleneck_2","id": "9","x": "587","y": "128","dangerous": "false","contents": ["darkshrine"],"content_directions": [],"exits": {"NE": "10","NW": "11"}},{"name": "basilica halls","areacode": "3_labyrinth_rt_branch_bottleneck_2","id": "10","x": "691","y": "216","dangerous": "false","contents": ["silver-door"],"content_directions": [],"exits": {"NW": "13","NE": "12"}},{"name": "domain walkways","areacode": "3_labyrinth_dg_branch","id": "11","x": "691","y": "40","dangerous": "false","contents": ["silver-door"],"content_directions": [],"exits": {"NW": "12","SE": "13"}},{"name": "aspirant's trial","areacode": "3_labyrinth_boss_2_end_#","id": "12","x": "793","y": "128","dangerous": "false","contents": [],"content_directions": [],"exits": {}},{"name": "basilica passage","areacode": "3_labyrinth_rt_straight","id": "13","x": "726","y": "128","dangerous": "false","contents": ["silver-key","darkshrine"],"content_directions": [],"exits": {"NE": "11","SE": "10"}}]}