{"difficulty": "Cruel","date": "2018-01-09","weapon": "TwoHandedMace","phase1": "Gargoyles","phase2": "Idols","trap1": "Spikes","trap2": "Darts","section1layout": "cruel_double_up","section2layout": "triangle","section3layout": "compass_west","rooms": [{"name": "estate walkways","areacode": "2_labyrinth_oh_branch","id": "1","x": "106","y": "128","dangerous": "false","contents": ["Trap gauntlet"],"content_directions": [],"exits": {"NE": "2","NW": "3"}},{"name": "aspirant's trial","areacode": "2_labyrinth_boss_2","id": "2","x": "244","y": "128","dangerous": "false","contents": [],"content_directions": [],"exits": {"NW": "4"}},{"name": "domain path","areacode": "2_labyrinth_dg_straight_bottleneck","id": "3","x": "175","y": "40","dangerous": "false","contents": ["Switch puzzle","darkshrine"],"content_directions": [],"exits": {"NE": "2"}},{"name": "domain walkways","areacode": "2_labyrinth_dg_branch_bottleneck_1_#","id": "4","x": "311","y": "128","dangerous": "false","contents": ["Trap gauntlet","Escort gauntlet"],"content_directions": [],"exits": {"NE": "6","NW": "5"}},{"name": "sanitorium halls","areacode": "2_labyrinth_p_branch_bottleneck_1","id": "5","x": "450","y": "128","dangerous": "false","contents": ["darkshrine"],"content_directions": [],"exits": {"NW": "6","NE": "7"}},{"name": "sepulchre passage","areacode": "2_labyrinth_c_straight","id": "6","x": "379","y": "40","dangerous": "false","contents": ["darkshrine"],"content_directions": [],"exits": {"NE": "5"}},{"name": "aspirant's trial","areacode": "2_labyrinth_boss_1","id": "7","x": "518","y": "128","dangerous": "false","contents": [],"content_directions": [],"exits": {"NW": "8"}},{"name": "estate walkways","areacode": "2_labyrinth_oh_branch_bottleneck_1","id": "8","x": "621","y": "128","dangerous": "false","contents": [],"content_directions": [],"exits": {"NW": "9","NE": "10"}},{"name": "sanitorium halls","areacode": "2_labyrinth_p_branch_bottleneck_2","id": "9","x": "726","y": "216","dangerous": "false","contents": ["silver-key","silver-door"],"content_directions": [],"exits": {"NE": "12","NW": "11"}},{"name": "estate walkways","areacode": "2_labyrinth_oh_branch","id": "10","x": "726","y": "40","dangerous": "false","contents": ["darkshrine"],"content_directions": [],"exits": {"NW": "11","NE": "12"}},{"name": "sanitorium passage","areacode": "2_labyrinth_p_straight","id": "11","x": "691","y": "128","dangerous": "false","contents": ["silver-key","silver-door"],"content_directions": [],"exits": {"NE": "10","SE": "9"}},{"name": "aspirant's trial","areacode": "2_labyrinth_boss_2_end","id": "12","x": "793","y": "128","dangerous": "false","contents": [],"content_directions": [],"exits": {}}]}